OBJECT_NAME,OBJECT_ID,EPOCH,MEAN_MOTION,ECCENTRICITY,INCLINATION,RA_OF_ASC_NODE,ARG_OF_PERICENTER,MEAN_ANOMALY,EPHEMERIS_TYPE,CLASSIFICATION_TYPE,NORAD_CAT_ID,ELEMENT_SET_NO,REV_AT_EPOCH,BSTAR,MEAN_MOTION_DOT,MEAN_MOTION_DDOT
SHERPA-LTC2,2022-107BG,2026-06-25T00:09:19.700064,14.69774558,.0393194,53.2343,187.2272,247.9968,107.8801,0,U,53754,999,20369,.20967E-3,.3964E-4,0
CENTISPACE-1 S3,2022-108A,2026-06-25T05:03:00.146304,14.61261838,.0009884,53.5339,22.0824,16.5465,343.5831,0,U,53757,999,20270,.12603E-3,.437E-5,0
CENTISPACE-1 S4,2022-108B,2026-06-25T02:56:31.769088,14.61944966,.0009051,53.5314,19.9258,5.1226,354.9841,0,U,53758,999,20272,.15161E-3,.575E-5,0
BLUEWALKER-3,2022-111AL,2026-06-24T21:52:06.156768,15.38361027,.0005683,53.2299,357.7073,185.3212,174.7734,0,U,53807,999,21139,.20687E-3,.7555E-4,0
YUNHAI-1 03,2022-115A,2026-06-25T05:14:58.850016,14.32723627,.0005407,98.5534,174.2638,36.1755,323.9794,0,U,53877,999,19666,.13462E-3,.323E-5,0
CENTISPACE-1 S5,2022-126A,2026-06-25T03:29:52.862208,14.63023661,.0014716,54.9971,181.1118,87.1391,273.1287,0,U,54020,999,19820,.14669E-3,.569E-5,0
CENTISPACE-1 S6,2022-126B,2026-06-25T03:25:44.431968,14.62294794,.0016547,54.9974,183.0256,87.5354,272.7534,0,U,54021,999,19816,.58086E-4,.106E-5,0
OTB-3-GAZELLE,2022-127A,2026-06-24T23:11:35.047104,14.42677051,.0013498,98.3946,167.5524,159.9712,200.2010,0,U,54023,999,19548,.57383E-4,.148E-5,0
ASO-S,2022-129A,2026-06-25T05:55:53.080896,14.52065254,.0015656,98.2748,181.2121,70.0839,290.2041,0,U,54029,999,19659,.61561E-4,.205E-5,0
HJ-2E,2022-132A,2026-06-25T04:08:20.729760,15.22420962,.0019465,97.3798,180.4048,346.8693,13.2034,0,U,54035,999,20563,.37196E-3,.8575E-4,0
COSMOS 2561,2022-137A,2026-06-25T05:20:34.689408,15.51886748,.0009565,96.9179,234.9231,7.7210,352.4189,0,U,54109,999,20759,.25163E-3,.15021E-3,0
GONETS-M 23,2022-139A,2026-06-25T03:38:07.071072,12.42891156,.0021225,82.5076,343.3440,201.8404,158.1772,0,U,54150,999,16663,.19069E-3,.36E-6,0
GONETS-M 24,2022-139B,2026-06-25T04:55:16.351104,12.42891782,.0016308,82.4993,342.3649,211.7176,148.2922,0,U,54151,999,16664,.18964E-3,.36E-6,0
GONETS-M 25,2022-139C,2026-06-25T04:35:41.217792,12.42890261,.0020233,82.5059,343.0641,210.7077,149.2820,0,U,54152,999,16664,.14689E-3,.3E-6,0
SKIF-D,2022-139D,2026-06-24T01:14:57.077664,5.00426881,.00074,89.9500,96.6660,196.1821,163.8447,0,U,54153,999,6445,0,-.15E-6,0
MATS,2022-147A,2026-06-24T23:00:53.010432,15.05393540,.0012888,97.6816,177.5212,167.1460,193.0097,0,U,54227,999,19893,.28283E-3,.4E-4,0
JILIN-1 GAOFEN 03D54,2022-155D,2026-06-25T05:01:27.291360,16.05480156,.000837,97.6179,330.4467,261.6084,98.4248,0,U,54254,999,20158,.94146E-3,.658477E-2,.21582E-3
EOS-6 (OCEANSAT-3),2022-158A,2026-06-25T04:24:54.765216,14.47004593,.0000804,98.3544,274.2722,45.1538,314.9719,0,U,54361,999,18899,.75472E-4,.231E-5,0
DONGPO 09,2022-167D,2026-06-25T05:24:36.256032,15.36498652,.0003639,97.6901,347.5921,98.1936,261.9720,0,U,54685,999,19668,.38595E-3,.13671E-3,0
DONGPO 08,2022-167E,2026-06-25T05:16:50.323296,15.33793262,.000916,97.6865,344.7264,134.8118,225.3870,0,U,54686,999,19655,.38131E-3,.124E-3,0
2022-167F,2022-167F,2026-06-25T04:19:01.002144,15.96612433,.0002459,97.6057,5.1139,236.8423,123.2617,0,U,54687,999,19810,.81699E-3,.342443E-2,.49308E-4
DONGPO 10,2022-167H,2026-06-25T05:20:17.922624,15.34603764,.000625,97.6946,346.6993,87.8932,272.3026,0,U,54689,999,19659,.37381E-3,.12462E-3,0
JILIN-1 GAOFEN 03D48,2022-167P,2026-06-25T05:11:12.012864,15.35378566,.0007595,97.6881,346.0734,91.4637,268.7476,0,U,54695,999,19662,.38848E-3,.13284E-3,0
STAR VIBE,2023-001A,2026-06-25T03:33:53.767008,15.42816931,.0007065,97.3173,240.6450,90.5991,269.6066,0,U,55009,999,19345,.38184E-3,.16667E-3,0
BRO-8,2023-001C,2026-06-25T04:28:19.787232,15.49514412,.0006669,97.3214,241.4874,102.3267,257.8731,0,U,55011,999,19344,.69276E-3,.38233E-3,0
CONNECTA T1.2,2023-001D,2026-06-25T04:06:15.861888,15.51295355,.0006046,97.3263,247.0059,79.4193,280.7740,0,U,55012,999,19378,.8735E-3,.51441E-3,0
BIRKELAND,2023-001G,2026-06-25T03:18:44.764704,15.40203502,.0008219,97.3348,244.1283,82.6817,277.5363,0,U,55015,999,19357,.26151E-3,.10433E-3,0
ION SCV-008,2023-001AU,2026-06-25T03:48:28.702656,15.28657766,.0014235,97.5710,272.6101,350.3740,9.7224,0,U,55051,999,19255,.23468E-3,.648E-4,0
ION SCV-007,2023-001BD,2026-06-25T02:54:34.826688,14.77559700,.0011263,97.9003,238.9788,314.9645,45.0651,0,U,55060,999,18742,.63772E-4,.405E-5,0
HUYGENS,2023-001CN,2026-06-25T03:18:51.390720,15.40204390,.0010648,97.3252,243.3479,61.9608,298.2714,0,U,55093,999,19359,.28911E-3,.11554E-3,0
