SHERPA-LTC2             
1 53754U 22107BG  26176.00647801  .00003964  00000+0  20967-3 0  9992
2 53754  53.2343 187.2272 0393194 247.9968 107.8801 14.69774558203690
CENTISPACE-1 S3         
1 53757U 22108A   26176.21041836  .00000437  00000+0  12603-3 0  9995
2 53757  53.5339  22.0824 0009884  16.5465 343.5831 14.61261838202709
CENTISPACE-1 S4         
1 53758U 22108B   26176.12258992  .00000575  00000+0  15161-3 0  9994
2 53758  53.5314  19.9258 0009051   5.1226 354.9841 14.61944966202723
BLUEWALKER-3            
1 53807U 22111AL  26175.91118237  .00007555  00000+0  20687-3 0  9990
2 53807  53.2299 357.7073 0005683 185.3212 174.7734 15.38361027211396
YUNHAI-1 03             
1 53877U 22115A   26176.21873669  .00000323  00000+0  13462-3 0  9991
2 53877  98.5534 174.2638 0005407  36.1755 323.9794 14.32723627196662
CENTISPACE-1 S5         
1 54020U 22126A   26176.14575072  .00000569  00000+0  14669-3 0  9995
2 54020  54.9971 181.1118 0014716  87.1391 273.1287 14.63023661198209
CENTISPACE-1 S6         
1 54021U 22126B   26176.14287537  .00000106  00000+0  58086-4 0  9991
2 54021  54.9974 183.0256 0016547  87.5354 272.7534 14.62294794198165
OTB-3-GAZELLE           
1 54023U 22127A   26175.96637786  .00000148  00000+0  57383-4 0  9993
2 54023  98.3946 167.5524 0013498 159.9712 200.2010 14.42677051195483
ASO-S                   
1 54029U 22129A   26176.24714214  .00000205  00000+0  61561-4 0  9992
2 54029  98.2748 181.2121 0015656  70.0839 290.2041 14.52065254196598
HJ-2E                   
1 54035U 22132A   26176.17246215  .00008575  00000+0  37196-3 0  9990
2 54035  97.3798 180.4048 0019465 346.8693  13.2034 15.22420962205633
COSMOS 2561             
1 54109U 22137A   26176.22262372  .00015021  00000+0  25163-3 0  9990
2 54109  96.9179 234.9231 0009565   7.7210 352.4189 15.51886748207596
GONETS-M 23             
1 54150U 22139A   26176.15147073  .00000036  00000+0  19069-3 0  9998
2 54150  82.5076 343.3440 0021225 201.8404 158.1772 12.42891156166639
GONETS-M 24             
1 54151U 22139B   26176.20505036  .00000036  00000+0  18964-3 0  9995
2 54151  82.4993 342.3649 0016308 211.7176 148.2922 12.42891782166642
GONETS-M 25             
1 54152U 22139C   26176.19144928  .00000030  00000+0  14689-3 0  9997
2 54152  82.5059 343.0641 0020233 210.7077 149.2820 12.42890261166647
SKIF-D                  
1 54153U 22139D   26175.05204951 -.00000015  00000+0  00000+0 0  9997
2 54153  89.9500  96.6660 0007400 196.1821 163.8447  5.00426881 64459
MATS                    
1 54227U 22147A   26175.95894688  .00004000  00000+0  28283-3 0  9993
2 54227  97.6816 177.5212 0012888 167.1460 193.0097 15.05393540198930
JILIN-1 GAOFEN 03D54    
1 54254U 22155D   26176.20934365  .00658477  21582-3  94146-3 0  9994
2 54254  97.6179 330.4467 0008370 261.6084  98.4248 16.05480156201580
EOS-6 (OCEANSAT-3)      
1 54361U 22158A   26176.18396719  .00000231  00000+0  75472-4 0  9997
2 54361  98.3544 274.2722 0000804  45.1538 314.9719 14.47004593188994
DONGPO 09               
1 54685U 22167D   26176.22541963  .00013671  00000+0  38595-3 0  9990
2 54685  97.6901 347.5921 0003639  98.1936 261.9720 15.36498652196686
DONGPO 08               
1 54686U 22167E   26176.22002689  .00012400  00000+0  38131-3 0  9993
2 54686  97.6865 344.7264 0009160 134.8118 225.3870 15.33793262196558
2022-167F               
1 54687U 22167F   26176.17987271  .00342443  49308-4  81699-3 0  9996
2 54687  97.6057   5.1139 0002459 236.8423 123.2617 15.96612433198104
DONGPO 10               
1 54689U 22167H   26176.22242966  .00012462  00000+0  37381-3 0  9994
2 54689  97.6946 346.6993 0006250  87.8932 272.3026 15.34603764196596
JILIN-1 GAOFEN 03D48    
1 54695U 22167P   26176.21611126  .00013284  00000+0  38848-3 0  9990
2 54695  97.6881 346.0734 0007595  91.4637 268.7476 15.35378566196626
STAR VIBE               
1 55009U 23001A   26176.14853897  .00016667  00000+0  38184-3 0  9994
2 55009  97.3173 240.6450 0007065  90.5991 269.6066 15.42816931193450
BRO-8                   
1 55011U 23001C   26176.18634013  .00038233  00000+0  69276-3 0  9997
2 55011  97.3214 241.4874 0006669 102.3267 257.8731 15.49514412193448
CONNECTA T1.2           
1 55012U 23001D   26176.17101692  .00051441  00000+0  87350-3 0  9998
2 55012  97.3263 247.0059 0006046  79.4193 280.7740 15.51295355193788
BIRKELAND               
1 55015U 23001G   26176.13801811  .00010433  00000+0  26151-3 0  9995
2 55015  97.3348 244.1283 0008219  82.6817 277.5363 15.40203502193578
ION SCV-008             
1 55051U 23001AU  26176.15866554  .00006480  00000+0  23468-3 0  9997
2 55051  97.5710 272.6101 0014235 350.3740   9.7224 15.28657766192552
ION SCV-007             
1 55060U 23001BD  26176.12123642  .00000405  00000+0  63772-4 0  9992
2 55060  97.9003 238.9788 0011263 314.9645  45.0651 14.77559700187424
HUYGENS                 
1 55093U 23001CN  26176.13809480  .00011554  00000+0  28911-3 0  9992
2 55093  97.3252 243.3479 0010648  61.9608 298.2714 15.40204390193591
